XRISM                   
1 57800U 23137A   23354.42874284  .00006659  00000+0  53043-3 0  9995
2 57800  31.0042  74.7767 0010173 226.9386 133.0398 14.98958307 15678
